STARLINK-3207           
1 49756U 21115AJ  26177.11787354  .00189745  00000+0  10765-1 0  9993
2 49756  53.1597  12.1738 0002086  84.1679 275.9552 15.11631550252042
STARLINK-3195           
1 49762U 21115AQ  26177.16668980  .00046258  00000+0  24035-2 0  9995
2 49762  53.1596  11.9051 0002317  87.0888  84.3482 15.15662319  5832
STARLINK-3196           
1 49768U 21115AW  26177.08939897  .00203695  00000+0  11172-1 0  9997
2 49768  53.1604  12.2732 0001527  85.2112 274.9055 15.12774811252048
STARLINK-3993           
1 52692U 22053AN  26176.86583081  .00000032  00000+0  20109-4 0  9997
2 52692  53.1593  18.0822 0001098 111.1254 248.9854 15.08829052227489
STARLINK-3946           
1 52693U 22053AP  26176.93945729 -.00001203  00000+0 -57533-4 0  9991
2 52693  53.1597  18.0206 0000957  84.7903 275.3197 15.08844401227499
STARLINK-3987           
1 52699U 22053AV  26177.16668980  .00010223  00000+0  54479-3 0  9999
2 52699  53.1588  11.8898 0001770  94.5866 120.8551 15.15758589  5833
