{
  "schema": "int-temerity-real-tle-snapshot/v1",
  "source": "celestrak",
  "group": "STARLINK",
  "format": "celestrak-gp-json",
  "source_url": "https://celestrak.org/NORAD/elements/gp.php?NAME=STARLINK&FORMAT=JSON",
  "downloaded_at": "2026-07-01T09:46:17.455Z",
  "generated_at": "2026-07-01T09:46:17.588Z",
  "fingerprint": "ee699b79",
  "shell_id": "starlink-real-53.2deg-545km",
  "catalog_count": 10658,
  "shell_count": 1056,
  "selected_count": 658,
  "mean_altitude_km": 545.46,
  "mean_inclination_deg": 53.1605,
  "mean_mean_motion_rev_per_day": 15.09305652,
  "layout": {
    "planes": 47,
    "satellites_per_plane": 14,
    "selection_strategy": "target-shell-raan-clusters-even-slot-sampling",
    "raan_cluster_threshold_deg": 1.5,
    "target_inclination_deg": 53,
    "target_altitude_km": 550,
    "selected_shell_key": "53.0deg-550km",
    "target_shell_distance": 21.03
  },
  "satellites": [
    {
      "satellite_id": "P02-S11",
      "norad_id": 49768,
      "satellite_name": "STARLINK-3196",
      "cospar_id": "2021-115AW",
      "shell_id": "starlink-real-53.2deg-545km",
      "plane_id": 1,
      "slot_id": 10,
      "epoch": "2026-06-26T02:08:44.071008",
      "inclination": 53.1604,
      "raan": 12.273199999999974,
      "eccentricity": 0.0001527,
      "argument_of_perigee": 85.21120000000002,
      "mean_anomaly": 274.9055000000001,
      "mean_motion": 15.12774811,
      "bstar": 0.011172,
      "status": "active",
      "raw_omm": {
        "OBJECT_NAME": "STARLINK-3196",
        "OBJECT_ID": "2021-115AW",
        "EPOCH": "2026-06-26T02:08:44.071008",
        "MEAN_MOTION": 15.12774811,
        "ECCENTRICITY": 0.0001527,
        "INCLINATION": 53.1604,
        "RA_OF_ASC_NODE": 12.2732,
        "ARG_OF_PERICENTER": 85.2112,
        "MEAN_ANOMALY": 274.9055,
        "EPHEMERIS_TYPE": 0,
        "CLASSIFICATION_TYPE": "U",
        "NORAD_CAT_ID": 49768,
        "ELEMENT_SET_NO": 999,
        "REV_AT_EPOCH": 25204,
        "BSTAR": 0.011172,
        "MEAN_MOTION_DOT": 0.00203695,
        "MEAN_MOTION_DDOT": 0
      },
      "source": "celestrak",
      "source_url": "https://celestrak.org/NORAD/elements/gp.php?NAME=STARLINK&FORMAT=JSON",
      "catalog_fingerprint": "ee699b79"
    },
    {
      "satellite_id": "P02-S12",
      "norad_id": 49756,
      "satellite_name": "STARLINK-3207",
      "cospar_id": "2021-115AJ",
      "shell_id": "starlink-real-53.2deg-545km",
      "plane_id": 1,
      "slot_id": 11,
      "epoch": "2026-06-26T02:49:44.273856",
      "inclination": 53.1597,
      "raan": 12.173800000000028,
      "eccentricity": 0.0002086,
      "argument_of_perigee": 84.16790000000003,
      "mean_anomaly": 275.9552,
      "mean_motion": 15.1163155,
      "bstar": 0.010765,
      "status": "active",
      "raw_omm": {
        "OBJECT_NAME": "STARLINK-3207",
        "OBJECT_ID": "2021-115AJ",
        "EPOCH": "2026-06-26T02:49:44.273856",
        "MEAN_MOTION": 15.1163155,
        "ECCENTRICITY": 0.0002086,
        "INCLINATION": 53.1597,
        "RA_OF_ASC_NODE": 12.1738,
        "ARG_OF_PERICENTER": 84.1679,
        "MEAN_ANOMALY": 275.9552,
        "EPHEMERIS_TYPE": 0,
        "CLASSIFICATION_TYPE": "U",
        "NORAD_CAT_ID": 49756,
        "ELEMENT_SET_NO": 999,
        "REV_AT_EPOCH": 25204,
        "BSTAR": 0.010765,
        "MEAN_MOTION_DOT": 0.00189745,
        "MEAN_MOTION_DDOT": 0
      },
      "source": "celestrak",
      "source_url": "https://celestrak.org/NORAD/elements/gp.php?NAME=STARLINK&FORMAT=JSON",
      "catalog_fingerprint": "ee699b79"
    },
    {
      "satellite_id": "P02-S13",
      "norad_id": 49762,
      "satellite_name": "STARLINK-3195",
      "cospar_id": "2021-115AQ",
      "shell_id": "starlink-real-53.2deg-545km",
      "plane_id": 1,
      "slot_id": 12,
      "epoch": "2026-06-26T04:00:01.998720",
      "inclination": 53.1596,
      "raan": 11.905100000000004,
      "eccentricity": 0.0002317,
      "argument_of_perigee": 87.08879999999999,
      "mean_anomaly": 84.34820000000002,
      "mean_motion": 15.15662319,
      "bstar": 0.0024035,
      "status": "active",
      "raw_omm": {
        "OBJECT_NAME": "STARLINK-3195",
        "OBJECT_ID": "2021-115AQ",
        "EPOCH": "2026-06-26T04:00:01.998720",
        "MEAN_MOTION": 15.15662319,
        "ECCENTRICITY": 0.0002317,
        "INCLINATION": 53.1596,
        "RA_OF_ASC_NODE": 11.9051,
        "ARG_OF_PERICENTER": 87.0888,
        "MEAN_ANOMALY": 84.3482,
        "EPHEMERIS_TYPE": 0,
        "CLASSIFICATION_TYPE": "U",
        "NORAD_CAT_ID": 49762,
        "ELEMENT_SET_NO": 999,
        "REV_AT_EPOCH": 583,
        "BSTAR": 0.0024035,
        "MEAN_MOTION_DOT": 0.00046258,
        "MEAN_MOTION_DDOT": 0
      },
      "source": "celestrak",
      "source_url": "https://celestrak.org/NORAD/elements/gp.php?NAME=STARLINK&FORMAT=JSON",
      "catalog_fingerprint": "ee699b79"
    },
    {
      "satellite_id": "P02-S14",
      "norad_id": 52699,
      "satellite_name": "STARLINK-3987",
      "cospar_id": "2022-053AV",
      "shell_id": "starlink-real-53.2deg-545km",
      "plane_id": 1,
      "slot_id": 13,
      "epoch": "2026-06-26T04:00:01.998720",
      "inclination": 53.1588,
      "raan": 11.88979999999998,
      "eccentricity": 0.000177,
      "argument_of_perigee": 94.58659999999998,
      "mean_anomaly": 120.8551,
      "mean_motion": 15.15758589,
      "bstar": 0.00054479,
      "status": "active",
      "raw_omm": {
        "OBJECT_NAME": "STARLINK-3987",
        "OBJECT_ID": "2022-053AV",
        "EPOCH": "2026-06-26T04:00:01.998720",
        "MEAN_MOTION": 15.15758589,
        "ECCENTRICITY": 0.000177,
        "INCLINATION": 53.1588,
        "RA_OF_ASC_NODE": 11.8898,
        "ARG_OF_PERICENTER": 94.5866,
        "MEAN_ANOMALY": 120.8551,
        "EPHEMERIS_TYPE": 0,
        "CLASSIFICATION_TYPE": "U",
        "NORAD_CAT_ID": 52699,
        "ELEMENT_SET_NO": 999,
        "REV_AT_EPOCH": 583,
        "BSTAR": 0.00054479,
        "MEAN_MOTION_DOT": 0.00010223,
        "MEAN_MOTION_DDOT": 0
      },
      "source": "celestrak",
      "source_url": "https://celestrak.org/NORAD/elements/gp.php?NAME=STARLINK&FORMAT=JSON",
      "catalog_fingerprint": "ee699b79"
    },
    {
      "satellite_id": "P03-S01",
      "norad_id": 52693,
      "satellite_name": "STARLINK-3946",
      "cospar_id": "2022-053AP",
      "shell_id": "starlink-real-53.2deg-545km",
      "plane_id": 2,
      "slot_id": 0,
      "epoch": "2026-06-25T22:32:49.109856",
      "inclination": 53.1597,
      "raan": 18.0206,
      "eccentricity": 0.0000957,
      "argument_of_perigee": 84.7903,
      "mean_anomaly": 275.3197,
      "mean_motion": 15.08844401,
      "bstar": -0.000057533,
      "status": "active",
      "raw_omm": {
        "OBJECT_NAME": "STARLINK-3946",
        "OBJECT_ID": "2022-053AP",
        "EPOCH": "2026-06-25T22:32:49.109856",
        "MEAN_MOTION": 15.08844401,
        "ECCENTRICITY": 0.0000957,
        "INCLINATION": 53.1597,
        "RA_OF_ASC_NODE": 18.0206,
        "ARG_OF_PERICENTER": 84.7903,
        "MEAN_ANOMALY": 275.3197,
        "EPHEMERIS_TYPE": 0,
        "CLASSIFICATION_TYPE": "U",
        "NORAD_CAT_ID": 52693,
        "ELEMENT_SET_NO": 999,
        "REV_AT_EPOCH": 22749,
        "BSTAR": -0.000057533,
        "MEAN_MOTION_DOT": -0.00001203,
        "MEAN_MOTION_DDOT": 0
      },
      "source": "celestrak",
      "source_url": "https://celestrak.org/NORAD/elements/gp.php?NAME=STARLINK&FORMAT=JSON",
      "catalog_fingerprint": "ee699b79"
    },
    {
      "satellite_id": "P03-S02",
      "norad_id": 52692,
      "satellite_name": "STARLINK-3993",
      "cospar_id": "2022-053AN",
      "shell_id": "starlink-real-53.2deg-545km",
      "plane_id": 2,
      "slot_id": 1,
      "epoch": "2026-06-25T20:46:47.781984",
      "inclination": 53.1593,
      "raan": 18.0822,
      "eccentricity": 0.0001098,
      "argument_of_perigee": 111.12540000000001,
      "mean_anomaly": 248.98540000000003,
      "mean_motion": 15.08829052,
      "bstar": 0.000020109,
      "status": "active",
      "raw_omm": {
        "OBJECT_NAME": "STARLINK-3993",
        "OBJECT_ID": "2022-053AN",
        "EPOCH": "2026-06-25T20:46:47.781984",
        "MEAN_MOTION": 15.08829052,
        "ECCENTRICITY": 0.0001098,
        "INCLINATION": 53.1593,
        "RA_OF_ASC_NODE": 18.0822,
        "ARG_OF_PERICENTER": 111.1254,
        "MEAN_ANOMALY": 248.9854,
        "EPHEMERIS_TYPE": 0,
        "CLASSIFICATION_TYPE": "U",
        "NORAD_CAT_ID": 52692,
        "ELEMENT_SET_NO": 999,
        "REV_AT_EPOCH": 22748,
        "BSTAR": 0.000020109,
        "MEAN_MOTION_DOT": 3.2e-7,
        "MEAN_MOTION_DDOT": 0
      },
      "source": "celestrak",
      "source_url": "https://celestrak.org/NORAD/elements/gp.php?NAME=STARLINK&FORMAT=JSON",
      "catalog_fingerprint": "ee699b79"
    }
  ]
}